[{"OBJECT_NAME":"HAIYANG-2B","OBJECT_ID":"2018-081A","EPOCH":"2023-11-25T03:18:25.208928","MEAN_MOTION":13.79304876,"ECCENTRICITY":6.71e-5,"INCLINATION":99.34,"RA_OF_ASC_NODE":335.562,"ARG_OF_PERICENTER":172.1044,"MEAN_ANOMALY":188.0118,"EPHEMERIS_TYPE":0,"CLASSIFICATION_TYPE":"U","NORAD_CAT_ID":43655,"ELEMENT_SET_NO":999,"REV_AT_EPOCH":25602,"BSTAR":7.4888e-5,"MEAN_MOTION_DOT":3.3e-7,"MEAN_MOTION_DDOT":0},{"OBJECT_NAME":"COSMOS 2528","OBJECT_ID":"2018-082A","EPOCH":"2023-11-25T01:26:03.570720","MEAN_MOTION":13.96581325,"ECCENTRICITY":0.0007611,"INCLINATION":67.1473,"RA_OF_ASC_NODE":190.3803,"ARG_OF_PERICENTER":277.9071,"MEAN_ANOMALY":82.115,"EPHEMERIS_TYPE":0,"CLASSIFICATION_TYPE":"U","NORAD_CAT_ID":43657,"ELEMENT_SET_NO":999,"REV_AT_EPOCH":25932,"BSTAR":5.3142e-5,"MEAN_MOTION_DOT":-2.0e-8,"MEAN_MOTION_DDOT":0},{"OBJECT_NAME":"CFOSAT","OBJECT_ID":"2018-083A","EPOCH":"2023-11-25T02:53:20.788800","MEAN_MOTION":15.16367452,"ECCENTRICITY":0.0001316,"INCLINATION":97.3881,"RA_OF_ASC_NODE":344.2173,"ARG_OF_PERICENTER":97.4353,"MEAN_ANOMALY":262.703,"EPHEMERIS_TYPE":0,"CLASSIFICATION_TYPE":"U","NORAD_CAT_ID":43662,"ELEMENT_SET_NO":999,"REV_AT_EPOCH":28082,"BSTAR":0.00037831,"MEAN_MOTION_DOT":7.279e-5,"MEAN_MOTION_DDOT":0},{"OBJECT_NAME":"CUBEBEL-1 (BSUSAT-1)","OBJECT_ID":"2018-083E","EPOCH":"2023-11-25T03:20:06.282240","MEAN_MOTION":15.56020725,"ECCENTRICITY":0.0004334,"INCLINATION":97.3591,"RA_OF_ASC_NODE":3.1936,"ARG_OF_PERICENTER":241.3294,"MEAN_ANOMALY":118.7525,"EPHEMERIS_TYPE":0,"CLASSIFICATION_TYPE":"U","NORAD_CAT_ID":43666,"ELEMENT_SET_NO":999,"REV_AT_EPOCH":28205,"BSTAR":0.0015241,"MEAN_MOTION_DOT":0.00107264,"MEAN_MOTION_DDOT":0},{"OBJECT_NAME":"CHANGSHAGAOXIN (TY 4-01)","OBJECT_ID":"2018-083H","EPOCH":"2023-11-25T03:15:48.301344","MEAN_MOTION":15.47282582,"ECCENTRICITY":0.0003093,"INCLINATION":97.362,"RA_OF_ASC_NODE":356.5512,"ARG_OF_PERICENTER":255.825,"MEAN_ANOMALY":104.2656,"EPHEMERIS_TYPE":0,"CLASSIFICATION_TYPE":"U","NORAD_CAT_ID":43669,"ELEMENT_SET_NO":999,"REV_AT_EPOCH":28171,"BSTAR":0.0013103,"MEAN_MOTION_DOT":0.00067192,"MEAN_MOTION_DDOT":0},{"OBJECT_NAME":"GOSAT 2","OBJECT_ID":"2018-084B","EPOCH":"2023-11-24T21:38:14.821152","MEAN_MOTION":14.84249048,"ECCENTRICITY":0.0001469,"INCLINATION":97.8841,"RA_OF_ASC_NODE":78.045,"ARG_OF_PERICENTER":84.6146,"MEAN_ANOMALY":275.5236,"EPHEMERIS_TYPE":0,"CLASSIFICATION_TYPE":"U","NORAD_CAT_ID":43672,"ELEMENT_SET_NO":999,"REV_AT_EPOCH":27482,"BSTAR":0.0006084,"MEAN_MOTION_DOT":5.044e-5,"MEAN_MOTION_DDOT":0},{"OBJECT_NAME":"KHALIFASAT","OBJECT_ID":"2018-084F","EPOCH":"2023-11-25T03:27:03.976992","MEAN_MOTION":14.92819513,"ECCENTRICITY":0.0013976,"INCLINATION":98.014,"RA_OF_ASC_NODE":105.4625,"ARG_OF_PERICENTER":330.0353,"MEAN_ANOMALY":30.0064,"EPHEMERIS_TYPE":0,"CLASSIFICATION_TYPE":"U","NORAD_CAT_ID":43676,"ELEMENT_SET_NO":999,"REV_AT_EPOCH":27582,"BSTAR":0.00048912,"MEAN_MOTION_DOT":5.012e-5,"MEAN_MOTION_DDOT":0},{"OBJECT_NAME":"TEN-KOH","OBJECT_ID":"2018-084G","EPOCH":"2023-11-24T22:32:29.829696","MEAN_MOTION":14.94171375,"ECCENTRICITY":0.0014233,"INCLINATION":98.0344,"RA_OF_ASC_NODE":112.1327,"ARG_OF_PERICENTER":341.3754,"MEAN_ANOMALY":18.6942,"EPHEMERIS_TYPE":0,"CLASSIFICATION_TYPE":"U","NORAD_CAT_ID":43677,"ELEMENT_SET_NO":999,"REV_AT_EPOCH":27605,"BSTAR":0.00042737,"MEAN_MOTION_DOT":4.524e-5,"MEAN_MOTION_DDOT":0},{"OBJECT_NAME":"DIWATA-2B","OBJECT_ID":"2018-084H","EPOCH":"2023-11-25T03:47:06.352224","MEAN_MOTION":14.94152517,"ECCENTRICITY":0.000914,"INCLINATION":98.0442,"RA_OF_ASC_NODE":116.6868,"ARG_OF_PERICENTER":357.7684,"MEAN_ANOMALY":2.3493,"EPHEMERIS_TYPE":0,"CLASSIFICATION_TYPE":"U","NORAD_CAT_ID":43678,"ELEMENT_SET_NO":999,"REV_AT_EPOCH":27629,"BSTAR":0.00029627,"MEAN_MOTION_DOT":3.112e-5,"MEAN_MOTION_DDOT":0},{"OBJECT_NAME":"STARS-AO","OBJECT_ID":"2018-084J","EPOCH":"2023-11-24T21:06:18.651456","MEAN_MOTION":14.98827626,"ECCENTRICITY":0.0007986,"INCLINATION":98.041,"RA_OF_ASC_NODE":120.6823,"ARG_OF_PERICENTER":346.7735,"MEAN_ANOMALY":13.3276,"EPHEMERIS_TYPE":0,"CLASSIFICATION_TYPE":"U","NORAD_CAT_ID":43679,"ELEMENT_SET_NO":999,"REV_AT_EPOCH":27648,"BSTAR":0.0006312,"MEAN_MOTION_DOT":7.56e-5,"MEAN_MOTION_DDOT":0},{"OBJECT_NAME":"AUTCUBE 2","OBJECT_ID":"2018-084K","EPOCH":"2023-11-24T22:28:41.814048","MEAN_MOTION":14.97104657,"ECCENTRICITY":0.0008306,"INCLINATION":98.0396,"RA_OF_ASC_NODE":118.2654,"ARG_OF_PERICENTER":349.6862,"MEAN_ANOMALY":10.4187,"EPHEMERIS_TYPE":0,"CLASSIFICATION_TYPE":"U","NORAD_CAT_ID":43681,"ELEMENT_SET_NO":999,"REV_AT_EPOCH":27634,"BSTAR":0.00050018,"MEAN_MOTION_DOT":5.714e-5,"MEAN_MOTION_DDOT":0},{"OBJECT_NAME":"BEIDOU-3 G1","OBJECT_ID":"2018-085A","EPOCH":"2023-11-24T22:11:42.978336","MEAN_MOTION":1.00271383,"ECCENTRICITY":0.0001654,"INCLINATION":1.6996,"RA_OF_ASC_NODE":119.1905,"ARG_OF_PERICENTER":16.9654,"MEAN_ANOMALY":40.4989,"EPHEMERIS_TYPE":0,"CLASSIFICATION_TYPE":"U","NORAD_CAT_ID":43683,"ELEMENT_SET_NO":999,"REV_AT_EPOCH":1868,"BSTAR":0,"MEAN_MOTION_DOT":-2.68e-6,"MEAN_MOTION_DDOT":0},{"OBJECT_NAME":"COSMOS 2529 [GLONASS-M]","OBJECT_ID":"2018-086A","EPOCH":"2023-11-23T12:57:52.086816","MEAN_MOTION":2.13101955,"ECCENTRICITY":0.0008318,"INCLINATION":64.307,"RA_OF_ASC_NODE":224.2964,"ARG_OF_PERICENTER":265.8697,"MEAN_ANOMALY":94.0928,"EPHEMERIS_TYPE":0,"CLASSIFICATION_TYPE":"U","NORAD_CAT_ID":43687,"ELEMENT_SET_NO":999,"REV_AT_EPOCH":3932,"BSTAR":0,"MEAN_MOTION_DOT":1.1e-7,"MEAN_MOTION_DDOT":0},{"OBJECT_NAME":"METOP-C","OBJECT_ID":"2018-087A","EPOCH":"2023-11-25T04:04:55.880544","MEAN_MOTION":14.21483843,"ECCENTRICITY":0.0001823,"INCLINATION":98.7111,"RA_OF_ASC_NODE":26.2178,"ARG_OF_PERICENTER":328.7512,"MEAN_ANOMALY":31.3557,"EPHEMERIS_TYPE":0,"CLASSIFICATION_TYPE":"U","NORAD_CAT_ID":43689,"ELEMENT_SET_NO":999,"REV_AT_EPOCH":26199,"BSTAR":0.00014054,"MEAN_MOTION_DOT":2.64e-6,"MEAN_MOTION_DDOT":0},{"OBJECT_NAME":"CICERO 10","OBJECT_ID":"2018-088A","EPOCH":"2023-11-25T00:38:25.659168","MEAN_MOTION":15.45498981,"ECCENTRICITY":0.0008663,"INCLINATION":85.0245,"RA_OF_ASC_NODE":323.115,"ARG_OF_PERICENTER":15.4659,"MEAN_ANOMALY":344.6858,"EPHEMERIS_TYPE":0,"CLASSIFICATION_TYPE":"U","NORAD_CAT_ID":43690,"ELEMENT_SET_NO":999,"REV_AT_EPOCH":28023,"BSTAR":0.00090044,"MEAN_MOTION_DOT":0.00043414,"MEAN_MOTION_DDOT":0},{"OBJECT_NAME":"PROXIMA I","OBJECT_ID":"2018-088E","EPOCH":"2023-11-24T17:10:20.929728","MEAN_MOTION":15.51090573,"ECCENTRICITY":0.0006127,"INCLINATION":85.0162,"RA_OF_ASC_NODE":318.1779,"ARG_OF_PERICENTER":327.1855,"MEAN_ANOMALY":32.9022,"EPHEMERIS_TYPE":0,"CLASSIFICATION_TYPE":"U","NORAD_CAT_ID":43694,"ELEMENT_SET_NO":999,"REV_AT_EPOCH":28055,"BSTAR":0.0010107,"MEAN_MOTION_DOT":0.00059236,"MEAN_MOTION_DDOT":0},{"OBJECT_NAME":"PROXIMA II","OBJECT_ID":"2018-088G","EPOCH":"2023-11-25T00:08:28.796640","MEAN_MOTION":15.50863276,"ECCENTRICITY":0.0006225,"INCLINATION":85.0164,"RA_OF_ASC_NODE":318.0637,"ARG_OF_PERICENTER":326.2308,"MEAN_ANOMALY":33.8552,"EPHEMERIS_TYPE":0,"CLASSIFICATION_TYPE":"U","NORAD_CAT_ID":43696,"ELEMENT_SET_NO":999,"REV_AT_EPOCH":28058,"BSTAR":0.0010354,"MEAN_MOTION_DOT":0.00060205,"MEAN_MOTION_DDOT":0},{"OBJECT_NAME":"GSAT-29","OBJECT_ID":"2018-089A","EPOCH":"2023-11-24T21:09:42.564096","MEAN_MOTION":1.00272488,"ECCENTRICITY":0.0004337,"INCLINATION":0.0574,"RA_OF_ASC_NODE":102.0203,"ARG_OF_PERICENTER":135.8463,"MEAN_ANOMALY":198.1943,"EPHEMERIS_TYPE":0,"CLASSIFICATION_TYPE":"U","NORAD_CAT_ID":43698,"ELEMENT_SET_NO":999,"REV_AT_EPOCH":1840,"BSTAR":0,"MEAN_MOTION_DOT":9.3e-7,"MEAN_MOTION_DDOT":0},{"OBJECT_NAME":"ES'HAIL 2","OBJECT_ID":"2018-090A","EPOCH":"2023-11-25T02:19:29.934336","MEAN_MOTION":1.00272187,"ECCENTRICITY":0.0002047,"INCLINATION":0.0137,"RA_OF_ASC_NODE":354.3034,"ARG_OF_PERICENTER":282.9495,"MEAN_ANOMALY":207.2144,"EPHEMERIS_TYPE":0,"CLASSIFICATION_TYPE":"U","NORAD_CAT_ID":43700,"ELEMENT_SET_NO":999,"REV_AT_EPOCH":1854,"BSTAR":0,"MEAN_MOTION_DOT":1.53e-6,"MEAN_MOTION_DDOT":0},{"OBJECT_NAME":"BEIDOU-3 M17","OBJECT_ID":"2018-093A","EPOCH":"2023-11-23T20:34:49.925856","MEAN_MOTION":1.86231837,"ECCENTRICITY":0.0007563,"INCLINATION":54.2425,"RA_OF_ASC_NODE":214.0909,"ARG_OF_PERICENTER":291.3729,"MEAN_ANOMALY":68.624,"EPHEMERIS_TYPE":0,"CLASSIFICATION_TYPE":"U","NORAD_CAT_ID":43706,"ELEMENT_SET_NO":999,"REV_AT_EPOCH":3410,"BSTAR":0,"MEAN_MOTION_DOT":3.4e-7,"MEAN_MOTION_DDOT":0},{"OBJECT_NAME":"BEIDOU-3 M18","OBJECT_ID":"2018-093B","EPOCH":"2023-11-24T06:16:22.723104","MEAN_MOTION":1.86229685,"ECCENTRICITY":0.000689,"INCLINATION":54.2432,"RA_OF_ASC_NODE":214.0689,"ARG_OF_PERICENTER":326.8374,"MEAN_ANOMALY":33.1992,"EPHEMERIS_TYPE":0,"CLASSIFICATION_TYPE":"U","NORAD_CAT_ID":43707,"ELEMENT_SET_NO":999,"REV_AT_EPOCH":3410,"BSTAR":0,"MEAN_MOTION_DOT":3.8e-7,"MEAN_MOTION_DDOT":0},{"OBJECT_NAME":"TIANZHI 1","OBJECT_ID":"2018-094A","EPOCH":"2023-11-25T03:48:06.603264","MEAN_MOTION":15.34796581,"ECCENTRICITY":0.0008914,"INCLINATION":97.3861,"RA_OF_ASC_NODE":340.6107,"ARG_OF_PERICENTER":298.4076,"MEAN_ANOMALY":61.6268,"EPHEMERIS_TYPE":0,"CLASSIFICATION_TYPE":"U","NORAD_CAT_ID":43710,"ELEMENT_SET_NO":999,"REV_AT_EPOCH":27915,"BSTAR":0.00046143,"MEAN_MOTION_DOT":0.00015518,"MEAN_MOTION_DDOT":0},{"OBJECT_NAME":"SHIYAN 6 01 (SY-6 01)","OBJECT_ID":"2018-094B","EPOCH":"2023-11-25T02:19:11.154432","MEAN_MOTION":15.33781284,"ECCENTRICITY":0.0057367,"INCLINATION":97.4046,"RA_OF_ASC_NODE":339.0522,"ARG_OF_PERICENTER":55.1981,"MEAN_ANOMALY":305.4641,"EPHEMERIS_TYPE":0,"CLASSIFICATION_TYPE":"U","NORAD_CAT_ID":43711,"ELEMENT_SET_NO":999,"REV_AT_EPOCH":27889,"BSTAR":0.00042353,"MEAN_MOTION_DOT":0.00014517,"MEAN_MOTION_DDOT":0},{"OBJECT_NAME":"TIANPING 1A","OBJECT_ID":"2018-094C","EPOCH":"2023-11-25T02:22:58.160928","MEAN_MOTION":15.44288132,"ECCENTRICITY":0.0005777,"INCLINATION":97.3746,"RA_OF_ASC_NODE":344.9069,"ARG_OF_PERICENTER":272.3998,"MEAN_ANOMALY":87.6589,"EPHEMERIS_TYPE":0,"CLASSIFICATION_TYPE":"U","NORAD_CAT_ID":43712,"ELEMENT_SET_NO":999,"REV_AT_EPOCH":27946,"BSTAR":0.00071674,"MEAN_MOTION_DOT":0.00033011,"MEAN_MOTION_DDOT":0}]
